start=new Date('2021-12-15T00:00:00.000Z').valueOf();
sats=[{"MEAN_MOTION_DOT":"0.00001724","PERIAPSIS":"544.376","ARG_OF_PERICENTER":"22.5478","OBJECT_NAME":"STARLINK-1793","RCS_SIZE":"LARGE","BSTAR":"0.00013463000000","LAUNCH_DATE":"2020-10-18","ELEMENT_SET_NO":"999","SITE":"AFETR","TLE_LINE2":"2 46694  53.0554 322.1681 0004100  22.5478 337.5690 15.06399265 64862","MEAN_MOTION_DDOT":"0.0000000000000","APOAPSIS":"550.055","MEAN_ELEMENT_THEORY":"SGP4","REF_FRAME":"TEME","EPHEMERIS_TYPE":"0","SEMIMAJOR_AXIS":"6925.351","CLASSIFICATION_TYPE":"U","OBJECT_TYPE":"PAYLOAD","ECCENTRICITY":"0.00041000","REV_AT_EPOCH":"6486","NORAD_CAT_ID":"46694","DECAY_DATE":null,"FILE":"3240201","MEAN_ANOMALY":"337.5690","GP_ID":"191699825","CENTER_NAME":"EARTH","INCLINATION":"53.0554","PERIOD":"95.592","COUNTRY_CODE":"US","EPOCH":"2021-12-14T15:05:41.489088","TIME_SYSTEM":"UTC","MEAN_MOTION":"15.06399265","OBJECT_ID":"2020-073AA","RA_OF_ASC_NODE":"322.1681","TLE_LINE1":"1 46694U 20073AA  21348.62895242  .00001724  00000-0  13463-3 0  9991"},{"TIME_SYSTEM":"UTC","EPOCH":"2021-12-14T10:45:37.448640","COUNTRY_CODE":"US","INCLINATION":"53.0559","PERIOD":"95.593","TLE_LINE1":"1 46696U 20073AC  21348.44835010 -.00000820  00000-0 -36182-4 0  9992","MEAN_MOTION":"15.06388394","OBJECT_ID":"2020-073AC","RA_OF_ASC_NODE":"322.9568","NORAD_CAT_ID":"46696","REV_AT_EPOCH":"6435","ECCENTRICITY":"0.00019860","GP_ID":"191694774","CENTER_NAME":"EARTH","MEAN_ANOMALY":"300.9315","FILE":"3240057","DECAY_DATE":null,"MEAN_ELEMENT_THEORY":"SGP4","REF_FRAME":"TEME","APOAPSIS":"548.625","MEAN_MOTION_DDOT":"0.0000000000000","TLE_LINE2":"2 46696  53.0559 322.9568 0001986  59.1869 300.9315 15.06388394 64353","SITE":"AFETR","ELEMENT_SET_NO":"999","OBJECT_TYPE":"PAYLOAD","SEMIMAJOR_AXIS":"6925.384","CLASSIFICATION_TYPE":"U","EPHEMERIS_TYPE":"0","BSTAR":"-0.00003618200000","RCS_SIZE":"LARGE","OBJECT_NAME":"STARLINK-1795","ARG_OF_PERICENTER":"59.1869","MEAN_MOTION_DOT":"-0.00000820","PERIAPSIS":"545.874","LAUNCH_DATE":"2020-10-18"},{"LAUNCH_DATE":"2020-10-18","RCS_SIZE":"LARGE","BSTAR":"-0.00000880510000","PERIAPSIS":"546.023","MEAN_MOTION_DOT":"-0.00000413","ARG_OF_PERICENTER":"54.7547","OBJECT_NAME":"STARLINK-1797","OBJECT_TYPE":"PAYLOAD","EPHEMERIS_TYPE":"0","SEMIMAJOR_AXIS":"6925.376","CLASSIFICATION_TYPE":"U","APOAPSIS":"548.459","MEAN_ELEMENT_THEORY":"SGP4","REF_FRAME":"TEME","ELEMENT_SET_NO":"999","TLE_LINE2":"2 46698  53.0551 341.5189 0001759  54.7547 305.3606 15.06390964 64588","SITE":"AFETR","MEAN_MOTION_DDOT":"0.0000000000000","CENTER_NAME":"EARTH","GP_ID":"191701070","DECAY_DATE":null,"FILE":"3240245","MEAN_ANOMALY":"305.3606","ECCENTRICITY":"0.00017590","REV_AT_EPOCH":"6458","NORAD_CAT_ID":"46698","TLE_LINE1":"1 46698U 20073AE  21348.77087011 -.00000413  00000-0 -88051-5 0  9991","OBJECT_ID":"2020-073AE","MEAN_MOTION":"15.06390964","RA_OF_ASC_NODE":"341.5189","COUNTRY_CODE":"US","EPOCH":"2021-12-14T18:30:03.177504","TIME_SYSTEM":"UTC","PERIOD":"95.593","INCLINATION":"53.0551"},{"TLE_LINE1":"1 46699U 20073AF  21348.70820983 -.00000371  00000-0 -60139-5 0  9998","MEAN_MOTION":"15.06396737","OBJECT_ID":"2020-073AF","RA_OF_ASC_NODE":"341.8064","TIME_SYSTEM":"UTC","EPOCH":"2021-12-14T16:59:49.329312","COUNTRY_CODE":"US","PERIOD":"95.592","INCLINATION":"53.0566","CENTER_NAME":"EARTH","GP_ID":"191700348","MEAN_ANOMALY":"301.9190","FILE":"3240195","DECAY_DATE":null,"NORAD_CAT_ID":"46699","REV_AT_EPOCH":"6455","ECCENTRICITY":"0.00016480","OBJECT_TYPE":"PAYLOAD","EPHEMERIS_TYPE":"0","SEMIMAJOR_AXIS":"6925.359","CLASSIFICATION_TYPE":"U","MEAN_ELEMENT_THEORY":"SGP4","REF_FRAME":"TEME","APOAPSIS":"548.365","MEAN_MOTION_DDOT":"0.0000000000000","SITE":"AFETR","TLE_LINE2":"2 46699  53.0566 341.8064 0001648  58.1959 301.9190 15.06396737 64553","ELEMENT_SET_NO":"999","LAUNCH_DATE":"2020-10-18","BSTAR":"-0.00000601390000","RCS_SIZE":"LARGE","OBJECT_NAME":"STARLINK-1799","ARG_OF_PERICENTER":"58.1959","PERIAPSIS":"546.082","MEAN_MOTION_DOT":"-0.00000371"},{"OBJECT_TYPE":"PAYLOAD","SEMIMAJOR_AXIS":"6925.332","EPHEMERIS_TYPE":"0","CLASSIFICATION_TYPE":"U","MEAN_ELEMENT_THEORY":"SGP4","REF_FRAME":"TEME","APOAPSIS":"548.357","MEAN_MOTION_DDOT":"0.0000000000000","SITE":"AFETR","TLE_LINE2":"2 46700  53.0538 357.9680 0001675  52.9610 307.1532 15.06405328 64334","ELEMENT_SET_NO":"999","LAUNCH_DATE":"2020-10-18","BSTAR":"0.00008440400000","RCS_SIZE":"LARGE","OBJECT_NAME":"STARLINK-1800","ARG_OF_PERICENTER":"52.9610","MEAN_MOTION_DOT":"0.00000976","PERIAPSIS":"546.037","TLE_LINE1":"1 46700U 20073AG  21348.44696576  .00000976  00000-0  84404-4 0  9990","MEAN_MOTION":"15.06405328","RA_OF_ASC_NODE":"357.9680","OBJECT_ID":"2020-073AG","TIME_SYSTEM":"UTC","EPOCH":"2021-12-14T10:43:37.841664","COUNTRY_CODE":"US","INCLINATION":"53.0538","PERIOD":"95.592","GP_ID":"191699844","CENTER_NAME":"EARTH","MEAN_ANOMALY":"307.1532","FILE":"3240195","DECAY_DATE":null,"NORAD_CAT_ID":"46700","REV_AT_EPOCH":"6433","ECCENTRICITY":"0.00016750"},{"OBJECT_TYPE":"PAYLOAD","SEMIMAJOR_AXIS":"6925.375","CLASSIFICATION_TYPE":"U","EPHEMERIS_TYPE":"0","REF_FRAME":"TEME","MEAN_ELEMENT_THEORY":"SGP4","APOAPSIS":"548.644","MEAN_MOTION_DDOT":"0.0000000000000","SITE":"AFETR","TLE_LINE2":"2 46701  53.0563 343.7118 0002027  57.5512 302.5673 15.06391376 64057","ELEMENT_SET_NO":"999","LAUNCH_DATE":"2020-10-18","BSTAR":"-0.00003351700000","RCS_SIZE":"LARGE","OBJECT_NAME":"STARLINK-1801","ARG_OF_PERICENTER":"57.5512","PERIAPSIS":"545.836","MEAN_MOTION_DOT":"-0.00000781","TLE_LINE1":"1 46701U 20073AH  21348.28064098 -.00000781  00000-0 -33517-4 0  9996","RA_OF_ASC_NODE":"343.7118","MEAN_MOTION":"15.06391376","OBJECT_ID":"2020-073AH","TIME_SYSTEM":"UTC","COUNTRY_CODE":"US","EPOCH":"2021-12-14T06:44:07.380672","INCLINATION":"53.0563","PERIOD":"95.593","GP_ID":"191694275","CENTER_NAME":"EARTH","MEAN_ANOMALY":"302.5673","FILE":"3240057","DECAY_DATE":null,"NORAD_CAT_ID":"46701","REV_AT_EPOCH":"6405","ECCENTRICITY":"0.00020270"},{"ECCENTRICITY":"0.00016400","REV_AT_EPOCH":"6434","NORAD_CAT_ID":"46702","DECAY_DATE":null,"FILE":"3240057","MEAN_ANOMALY":"314.6223","GP_ID":"191695526","CENTER_NAME":"EARTH","INCLINATION":"53.0550","PERIOD":"95.592","EPOCH":"2021-12-14T08:38:13.701984","COUNTRY_CODE":"US","TIME_SYSTEM":"UTC","RA_OF_ASC_NODE":"323.3741","MEAN_MOTION":"15.06399986","OBJECT_ID":"2020-073AJ","TLE_LINE1":"1 46702U 20073AJ  21348.35988081 -.00000329  00000-0 -31620-5 0  9994","PERIAPSIS":"546.078","MEAN_MOTION_DOT":"-0.00000329","ARG_OF_PERICENTER":"45.4900","OBJECT_NAME":"STARLINK-1802","RCS_SIZE":"LARGE","BSTAR":"-0.00000316200000","LAUNCH_DATE":"2020-10-18","ELEMENT_SET_NO":"999","TLE_LINE2":"2 46702  53.0550 323.3741 0001640  45.4900 314.6223 15.06399986 64349","SITE":"AFETR","MEAN_MOTION_DDOT":"0.0000000000000","APOAPSIS":"548.349","MEAN_ELEMENT_THEORY":"SGP4","REF_FRAME":"TEME","CLASSIFICATION_TYPE":"U","SEMIMAJOR_AXIS":"6925.349","EPHEMERIS_TYPE":"0","OBJECT_TYPE":"PAYLOAD"},{"EPOCH":"2021-12-14T09:23:21.058080","COUNTRY_CODE":"US","TIME_SYSTEM":"UTC","PERIOD":"95.592","INCLINATION":"53.0551","TLE_LINE1":"1 46703U 20073AK  21348.39121595 -.00000713  00000-0 -28948-4 0  9993","RA_OF_ASC_NODE":"343.2229","OBJECT_ID":"2020-073AK","MEAN_MOTION":"15.06396887","ECCENTRICITY":"0.00017190","REV_AT_EPOCH":"6406","NORAD_CAT_ID":"46703","CENTER_NAME":"EARTH","GP_ID":"191695277","DECAY_DATE":null,"FILE":"3240057","MEAN_ANOMALY":"298.2847","APOAPSIS":"548.414","MEAN_ELEMENT_THEORY":"SGP4","REF_FRAME":"TEME","ELEMENT_SET_NO":"999","SITE":"AFETR","TLE_LINE2":"2 46703  53.0551 343.2229 0001719  61.8316 298.2847 15.06396887 64068","MEAN_MOTION_DDOT":"0.0000000000000","OBJECT_TYPE":"PAYLOAD","EPHEMERIS_TYPE":"0","SEMIMAJOR_AXIS":"6925.358","CLASSIFICATION_TYPE":"U","RCS_SIZE":"LARGE","BSTAR":"-0.00002894800000","PERIAPSIS":"546.033","MEAN_MOTION_DOT":"-0.00000713","ARG_OF_PERICENTER":"61.8316","OBJECT_NAME":"STARLINK-1803","LAUNCH_DATE":"2020-10-18"},{"TLE_LINE1":"1 46704U 20073AL  21348.56997662  .00001279  00000-0  10480-3 0  9996","OBJECT_ID":"2020-073AL","RA_OF_ASC_NODE":"322.4138","MEAN_MOTION":"15.06398479","TIME_SYSTEM":"UTC","COUNTRY_CODE":"US","EPOCH":"2021-12-14T13:40:45.979968","INCLINATION":"53.0572","PERIOD":"95.592","GP_ID":"191694525","CENTER_NAME":"EARTH","MEAN_ANOMALY":"328.6651","FILE":"3240057","DECAY_DATE":null,"NORAD_CAT_ID":"46704","REV_AT_EPOCH":"6437","ECCENTRICITY":"0.00025350","OBJECT_TYPE":"PAYLOAD","CLASSIFICATION_TYPE":"U","SEMIMAJOR_AXIS":"6925.353","EPHEMERIS_TYPE":"0","MEAN_ELEMENT_THEORY":"SGP4","REF_FRAME":"TEME","APOAPSIS":"548.974","MEAN_MOTION_DDOT":"0.0000000000000","SITE":"AFETR","TLE_LINE2":"2 46704  53.0572 322.4138 0002535  31.4489 328.6651 15.06398479 64375","ELEMENT_SET_NO":"999","LAUNCH_DATE":"2020-10-18","BSTAR":"0.00010480000000","RCS_SIZE":"LARGE","OBJECT_NAME":"STARLINK-1804","ARG_OF_PERICENTER":"31.4489","MEAN_MOTION_DOT":"0.00001279","PERIAPSIS":"545.463"},{"OBJECT_ID":"2020-073AM","MEAN_MOTION":"15.06396203","RA_OF_ASC_NODE":"357.9469","TLE_LINE1":"1 46705U 20073AM  21348.45065309 -.00000768  00000-0 -32641-4 0  9997","PERIOD":"95.592","INCLINATION":"53.0556","TIME_SYSTEM":"UTC","COUNTRY_CODE":"US","EPOCH":"2021-12-14T10:48:56.426976","MEAN_ANOMALY":"310.0155","FILE":"3240057","DECAY_DATE":null,"GP_ID":"191694775","CENTER_NAME":"EARTH","NORAD_CAT_ID":"46705","REV_AT_EPOCH":"6386","ECCENTRICITY":"0.00019290","EPHEMERIS_TYPE":"0","SEMIMAJOR_AXIS":"6925.360","CLASSIFICATION_TYPE":"U","OBJECT_TYPE":"PAYLOAD","MEAN_MOTION_DDOT":"0.0000000000000","TLE_LINE2":"2 46705  53.0556 357.9469 0001929  50.1003 310.0155 15.06396203 63864","SITE":"AFETR","ELEMENT_SET_NO":"999","MEAN_ELEMENT_THEORY":"SGP4","REF_FRAME":"TEME","APOAPSIS":"548.561","LAUNCH_DATE":"2020-10-18","OBJECT_NAME":"STARLINK-1805","ARG_OF_PERICENTER":"50.1003","MEAN_MOTION_DOT":"-0.00000768","PERIAPSIS":"545.889","BSTAR":"-0.00003264100000","RCS_SIZE":"LARGE"}];
